<gpx xmlns="http://www.topografix.com/GPX/1/1" xmlns:xsi="http://www.w3.org/2001/XMLSchema-instance" xsi:schemaLocation="http://www.topografix.com/GPX/1/1 http://www.topografix.com/GPX/1/1/gpx.xsd" version="1.1" creator="savvy navvy"><metadata/><rte><name>savvy navvy route</name><desc>Created by savvy navvy</desc><link href="https://www.savvy-navvy.com"/><rtept lat="18.4243017" lon="-64.6133255"/><rtept lat="18.419415134306696" lon="-64.60841488310146"/><rtept lat="18.408169481097705" lon="-64.59495423212853"/><rtept lat="18.409838647963863" lon="-64.59342395429037"/><rtept lat="18.4050055874827" lon="-64.55791360465052"/><rtept lat="18.402531336857944" lon="-64.55630121107927"/><rtept lat="18.39055566076147" lon="-64.54031068986845"/><rtept lat="18.38173382172669" lon="-64.5287301534412"/><rtept lat="18.45171369949936" lon="-64.48198710272777"/><rtept lat="18.428213356241294" lon="-64.45293255372077"/><rtept lat="18.428032875598372" lon="-64.45259925328692"/><rtept lat="18.428104266394985" lon="-64.45199011944813"/><rtept lat="18.4283898479583" lon="-64.44853568060383"/><rtept lat="18.428695802714216" lon="-64.44694766936516"/><rtept lat="18.429351564270043" lon="-64.44768141434228"/><rtept lat="18.430858332953562" lon="-64.44906427890803"/><rtept lat="18.442212371535717" lon="-64.44752575415856"/><rtept lat="18.445957623949194" lon="-64.44664763897042"/><rtept lat="18.449134780507617" lon="-64.4452184675533"/><rtept lat="18.45500514702557" lon="-64.44115794585701"/><rtept lat="18.45541181169756" lon="-64.44092790029885"/><rtept lat="18.455576371250864" lon="-64.4433805997975"/><rtept lat="18.45891735197701" lon="-64.4462515258882"/><rtept lat="18.47193937786093" lon="-64.44066342237394"/><rtept lat="18.51490582379706" lon="-64.41288592796367"/><rtept lat="18.52997235769718" lon="-64.39906305101952"/><rtept lat="18.523951460435853" lon="-64.38966485009291"/><rtept lat="18.514016355414235" lon="-64.38058796800372"/><rtept lat="18.511746978297946" lon="-64.37942551635135"/><rtept lat="18.510603462164617" lon="-64.37884497501942"/><rtept lat="18.50612957685704" lon="-64.37916467043377"/><rtept lat="18.503155876266792" lon="-64.38307489971815"/><rtept lat="18.498942397631414" lon="-64.3879362194522"/><rtept lat="18.498699554942643" lon="-64.3886261937847"/><rtept lat="18.49849414264297" lon="-64.38891403377983"/><rtept lat="18.50638099865017" lon="-64.38213216554868"/><rtept lat="18.512086148241135" lon="-64.37990384424745"/><rtept lat="18.516021219592808" lon="-64.37980560173362"/><rtept lat="18.52484006871476" lon="-64.38113505891891"/><rtept lat="18.54346530285632" lon="-64.38111865042826"/><rtept lat="18.70389495963416" lon="-64.40335090110815"/><rtept lat="18.71405212554074" lon="-64.40771179251571"/><rtept lat="18.720571560089475" lon="-64.40988717879792"/><rtept lat="18.721403663043795" lon="-64.40933378298003"/><rtept lat="18.726919491336165" lon="-64.40752389160753"/><rtept lat="18.727176476209266" lon="-64.40769663164906"/><rtept lat="18.72741508971197" lon="-64.40761833615163"/><rtept lat="18.727363323373698" lon="-64.4075223425954"/><rtept lat="18.727307167901152" lon="-64.40735599155784"/><rtept lat="18.727211143407278" lon="-64.40713493968202"/><rtept lat="18.72662843222169" lon="-64.40605438191372"/><rtept lat="18.72648434646355" lon="-64.40583442594105"/><rtept lat="18.726184837845057" lon="-64.40545321914097"/><rtept lat="18.708349415840214" lon="-64.42242836513144"/><rtept lat="18.652428634656793" lon="-64.48833385463618"/><rtept lat="18.44039525570565" lon="-64.69026106126738"/><rtept lat="18.433882818966364" lon="-64.7084248900016"/><rtept lat="18.433026917404824" lon="-64.71031412068758"/><rtept lat="18.43479052008851" lon="-64.71128818396085"/><rtept lat="18.43522400848813" lon="-64.71139134049537"/><rtept lat="18.43406432013533" lon="-64.71356529838397"/><rtept lat="18.428971929490316" lon="-64.73459704992764"/><rtept lat="18.430859347287125" lon="-64.73734218920485"/><rtept lat="18.43249282565396" lon="-64.74185568678251"/><rtept lat="18.4349324750666" lon="-64.74614935790362"/><rtept lat="18.43776359878413" lon="-64.75026730480263"/><rtept lat="18.439521169665465" lon="-64.75177097752524"/><rtept lat="18.442063317395395" lon="-64.75126456438522"/><rtept lat="18.442989053600684" lon="-64.7513363810301"/><rtept lat="18.439922216101163" lon="-64.75150586921716"/><rtept lat="18.412257367884006" lon="-64.73645262154902"/><rtept lat="18.386947369169924" lon="-64.71959735651795"/><rtept lat="18.386067817178148" lon="-64.71783173246271"/><rtept lat="18.38465015596542" lon="-64.70663468790954"/><rtept lat="18.38673867938818" lon="-64.70208349992504"/><rtept lat="18.3873507683428" lon="-64.7019276981955"/><rtept lat="18.385314793780335" lon="-64.70410624047037"/><rtept lat="18.383745697573573" lon="-64.70707082458446"/><rtept lat="18.382121155420176" lon="-64.70856092512356"/><rtept lat="18.355645091315925" lon="-64.67638630240845"/><rtept lat="18.347962176032397" lon="-64.65402243631803"/><rtept lat="18.333457243923707" lon="-64.64217134978306"/><rtept lat="18.334790745408547" lon="-64.64087464646121"/><rtept lat="18.334421407360242" lon="-64.63829224832679"/><rtept lat="18.331986402948274" lon="-64.6369650589583"/><rtept lat="18.32377220253875" lon="-64.62889983965812"/><rtept lat="18.317272467597714" lon="-64.62127775725429"/><rtept lat="18.314751611560215" lon="-64.61891239257375"/><rtept lat="18.320989381029037" lon="-64.62715813255791"/><rtept lat="18.32259305139086" lon="-64.62608121834354"/><rtept lat="18.323994259816413" lon="-64.62574676734633"/><rtept lat="18.3377135062369" lon="-64.61968068988287"/><rtept lat="18.411719196651227" lon="-64.60823800301682"/><rtept lat="18.413234089081325" lon="-64.60856381586254"/><rtept lat="18.41470656488126" lon="-64.60917460883526"/><rtept lat="18.417572512559254" lon="-64.60873136373533"/><rtept lat="18.42202150728017" lon="-64.61057683699289"/><rtept lat="18.424097004879663" lon="-64.61332041019884"/><rtept lat="18.42432630694846" lon="-64.61341553184997"/></rte></gpx>