<gpx xmlns="http://www.topografix.com/GPX/1/1" xmlns:xsi="http://www.w3.org/2001/XMLSchema-instance" xsi:schemaLocation="http://www.topografix.com/GPX/1/1 http://www.topografix.com/GPX/1/1/gpx.xsd" version="1.1" creator="savvy navvy"><metadata/><rte><name>savvy navvy route</name><desc>Created by savvy navvy</desc><link href="https://www.savvy-navvy.com"/><rtept lat="18.4185322" lon="-64.6069682"/><rtept lat="18.41302096398231" lon="-64.60124213316104"/><rtept lat="18.409724541112208" lon="-64.59836866785498"/><rtept lat="18.41038364322593" lon="-64.59742824357734"/><rtept lat="18.405595996720436" lon="-64.56225156784058"/><rtept lat="18.41218396569015" lon="-64.55455631486205"/><rtept lat="18.39671122434407" lon="-64.54002094994496"/><rtept lat="18.39024773763735" lon="-64.53428031065027"/><rtept lat="18.40837411009427" lon="-64.51547150466529"/><rtept lat="18.449543453661306" lon="-64.4792976119822"/><rtept lat="18.427176611432966" lon="-64.4559171986669"/><rtept lat="18.425030917928517" lon="-64.45327289705284"/><rtept lat="18.430032443005256" lon="-64.44853869029617"/><rtept lat="18.42868125033131" lon="-64.44687350395405"/><rtept lat="18.429172032409966" lon="-64.44770313821532"/><rtept lat="18.43050154916425" lon="-64.44913852578209"/><rtept lat="18.444493579699763" lon="-64.44842544872726"/><rtept lat="18.455808204856094" lon="-64.441122390591"/><rtept lat="18.455246182301526" lon="-64.44296660248284"/><rtept lat="18.455340725963932" lon="-64.4456565606674"/><rtept lat="18.45887779025466" lon="-64.44566374605476"/><rtept lat="18.462970862428715" lon="-64.44385190539003"/><rtept lat="18.496779129638043" lon="-64.4248969937986"/><rtept lat="18.51983590491101" lon="-64.40904297886733"/><rtept lat="18.5338888919416" lon="-64.39736562546958"/><rtept lat="18.525498676277575" lon="-64.39034408204728"/><rtept lat="18.521228099174984" lon="-64.38821042708385"/><rtept lat="18.512589247494454" lon="-64.38060080679084"/><rtept lat="18.510932978022378" lon="-64.37920247968681"/><rtept lat="18.507705509324712" lon="-64.37955880981521"/><rtept lat="18.502732416162658" lon="-64.38205996617884"/><rtept lat="18.498669145596168" lon="-64.38832306549754"/><rtept lat="18.498507021576533" lon="-64.38877796541954"/><rtept lat="18.503922832267687" lon="-64.38244649395322"/><rtept lat="18.505982769668893" lon="-64.38073704533328"/><rtept lat="18.529255783494484" lon="-64.37717136413056"/><rtept lat="18.665345236507797" lon="-64.40239202647876"/><rtept lat="18.701733802996856" lon="-64.40305566519974"/><rtept lat="18.70562038682641" lon="-64.40353093501867"/><rtept lat="18.70758425619921" lon="-64.40125250615546"/><rtept lat="18.708762148389102" lon="-64.39247821975451"/><rtept lat="18.71025432538081" lon="-64.38549484870738"/><rtept lat="18.711539314591725" lon="-64.38226130522403"/><rtept lat="18.71196983407428" lon="-64.38084032121425"/><rtept lat="18.71251672665079" lon="-64.37946412216772"/><rtept lat="18.71415885124225" lon="-64.37892556174383"/><rtept lat="18.71521979100844" lon="-64.37919837658877"/><rtept lat="18.71792017177553" lon="-64.38016997675888"/><rtept lat="18.72012973237796" lon="-64.38090725662391"/><rtept lat="18.720603405749383" lon="-64.38122565029771"/><rtept lat="18.715368731095445" lon="-64.38003341866546"/><rtept lat="18.713169961839355" lon="-64.37857266697098"/><rtept lat="18.711798555709166" lon="-64.38072098802935"/><rtept lat="18.7086634313102" lon="-64.39126107068664"/><rtept lat="18.705446111431428" lon="-64.40037954313894"/><rtept lat="18.701156236739337" lon="-64.40241204679312"/><rtept lat="18.617721157626274" lon="-64.45113121060035"/><rtept lat="18.5970897637273" lon="-64.46209149022829"/><rtept lat="18.536301939631826" lon="-64.49753540305684"/><rtept lat="18.471031126644416" lon="-64.5259610719167"/><rtept lat="18.468253106306566" lon="-64.52633274841169"/><rtept lat="18.466692974740027" lon="-64.5247884195341"/><rtept lat="18.465288032494502" lon="-64.52642762264422"/><rtept lat="18.463093657127573" lon="-64.52715118991182"/><rtept lat="18.4598187712052" lon="-64.52857714292685"/><rtept lat="18.45740283038506" lon="-64.52937372161666"/><rtept lat="18.455409018923515" lon="-64.53059880277407"/><rtept lat="18.451346910532518" lon="-64.5322174970766"/><rtept lat="18.449906657700307" lon="-64.53200537125379"/><rtept lat="18.448003270108373" lon="-64.53154810158829"/><rtept lat="18.447022603216194" lon="-64.5316652994399"/><rtept lat="18.446457771006603" lon="-64.53178342259187"/><rtept lat="18.448717869334345" lon="-64.53140589309783"/><rtept lat="18.4504891326185" lon="-64.53163287249629"/><rtept lat="18.450236572160478" lon="-64.53495306290563"/><rtept lat="18.450480577889127" lon="-64.5359737644129"/><rtept lat="18.4506525276901" lon="-64.53707111615962"/><rtept lat="18.451174344262355" lon="-64.54379744547597"/><rtept lat="18.45325404092046" lon="-64.54709716745096"/><rtept lat="18.45734010917058" lon="-64.55108872326282"/><rtept lat="18.460021275596972" lon="-64.55558344866759"/><rtept lat="18.463582631829702" lon="-64.56012608488733"/><rtept lat="18.45794743145257" lon="-64.59950247538752"/><rtept lat="18.45486012793388" lon="-64.62254165178443"/><rtept lat="18.458485132134005" lon="-64.67886185870977"/><rtept lat="18.441799005739536" lon="-64.69858544045725"/><rtept lat="18.444405816228414" lon="-64.70153198945376"/><rtept lat="18.448254396092405" lon="-64.70775897958632"/><rtept lat="18.448654152319175" lon="-64.70903524257636"/><rtept lat="18.449712134662516" lon="-64.7100401274172"/><rtept lat="18.45096837004861" lon="-64.7102249434995"/><rtept lat="18.45149968507375" lon="-64.7101565143394"/><rtept lat="18.451444977996918" lon="-64.70969013817877"/><rtept lat="18.451200179887287" lon="-64.70972166623321"/><rtept lat="18.450293230708905" lon="-64.71066400467184"/><rtept lat="18.43853149726817" lon="-64.71856719440208"/><rtept lat="18.434597476441848" lon="-64.72072856036513"/><rtept lat="18.432163435655735" lon="-64.73239718666228"/><rtept lat="18.43099351633223" lon="-64.73632578053774"/><rtept lat="18.43275753357798" lon="-64.73920771089155"/><rtept lat="18.433634189137777" lon="-64.74329265057884"/><rtept lat="18.435495507573954" lon="-64.74540804990849"/><rtept lat="18.4386376965902" lon="-64.7496718366112"/><rtept lat="18.44020346968271" lon="-64.75034558205724"/><rtept lat="18.442165818294495" lon="-64.75079493696046"/><rtept lat="18.44323057257955" lon="-64.7513714417589"/><rtept lat="18.440088099065413" lon="-64.75095178142831"/><rtept lat="18.437149880155907" lon="-64.74998430017847"/><rtept lat="18.43269498077224" lon="-64.74756017922735"/><rtept lat="18.395251145841616" lon="-64.72262204265573"/><rtept lat="18.39036149492945" lon="-64.72101247752245"/><rtept lat="18.385001200959817" lon="-64.7222627792339"/><rtept lat="18.37980306206229" lon="-64.72298478605063"/><rtept lat="18.376410691660304" lon="-64.71973525616599"/><rtept lat="18.36433858414746" lon="-64.70329033592627"/><rtept lat="18.38747116855149" lon="-64.68724227926114"/><rtept lat="18.36114292339989" lon="-64.65776254670436"/><rtept lat="18.32329058636255" lon="-64.6277560147822"/><rtept lat="18.31837141932875" lon="-64.62228923565657"/><rtept lat="18.31726443543899" lon="-64.62083306954996"/><rtept lat="18.316673433658814" lon="-64.61805441618053"/><rtept lat="18.31647569050967" lon="-64.61739994907067"/><rtept lat="18.316665517359674" lon="-64.62022725236498"/><rtept lat="18.318128665228855" lon="-64.62352052219043"/><rtept lat="18.359058025160408" lon="-64.67245079053748"/><rtept lat="18.379054581459126" lon="-64.70602092493466"/><rtept lat="18.381876201572087" lon="-64.70876186818936"/><rtept lat="18.384218049242467" lon="-64.70672855976036"/><rtept lat="18.38650217788599" lon="-64.70232842722073"/><rtept lat="18.38762562314972" lon="-64.70115002400662"/><rtept lat="18.3859646433788" lon="-64.70271669245706"/><rtept lat="18.385192769996326" lon="-64.70476249486923"/><rtept lat="18.38350920514973" lon="-64.7076883275383"/><rtept lat="18.38135743619384" lon="-64.70809448010054"/><rtept lat="18.381275573901387" lon="-64.7073126787355"/><rtept lat="18.3787824240039" lon="-64.70418382511893"/><rtept lat="18.37188091935221" lon="-64.69536663810894"/><rtept lat="18.352731872254218" lon="-64.67577505960878"/><rtept lat="18.38690558713786" lon="-64.65061540066918"/><rtept lat="18.373983639665173" lon="-64.63628619394004"/><rtept lat="18.395118212159257" lon="-64.62005132545671"/><rtept lat="18.401308666129502" lon="-64.61445688973104"/><rtept lat="18.411039937983624" lon="-64.60953196866667"/><rtept lat="18.41239258557824" lon="-64.60868770570195"/><rtept lat="18.414073773526578" lon="-64.60835216506563"/><rtept lat="18.416565376880826" lon="-64.60785487731397"/><rtept lat="18.417722723686317" lon="-64.60884416938228"/></rte></gpx>