<gpx xmlns="http://www.topografix.com/GPX/1/1" xmlns:xsi="http://www.w3.org/2001/XMLSchema-instance" xsi:schemaLocation="http://www.topografix.com/GPX/1/1 http://www.topografix.com/GPX/1/1/gpx.xsd" version="1.1" creator="savvy navvy"><metadata/><rte><name>savvy navvy route</name><desc>Created by savvy navvy</desc><link href="https://www.savvy-navvy.com"/><rtept lat="18.4185322" lon="-64.6069682"/><rtept lat="18.407226037946693" lon="-64.60150452135535"/><rtept lat="18.409406832524" lon="-64.59555441500471"/><rtept lat="18.410026921639435" lon="-64.59480727321915"/><rtept lat="18.405595996720436" lon="-64.56225156784058"/><rtept lat="18.405819648798946" lon="-64.55513495088962"/><rtept lat="18.40741892669232" lon="-64.5524419846974"/><rtept lat="18.41311561859794" lon="-64.54067219844244"/><rtept lat="18.425841544290183" lon="-64.51862487308313"/><rtept lat="18.45181749465817" lon="-64.48101294835338"/><rtept lat="18.420449103864993" lon="-64.46030890949196"/><rtept lat="18.42853131121214" lon="-64.44857137896106"/><rtept lat="18.429367162687623" lon="-64.44753658354222"/><rtept lat="18.42861511278398" lon="-64.44691639949659"/><rtept lat="18.429411010228385" lon="-64.44753853210113"/><rtept lat="18.44006585649097" lon="-64.44920000861497"/><rtept lat="18.445244698904006" lon="-64.4486462158263"/><rtept lat="18.446399949655046" lon="-64.44703539193566"/><rtept lat="18.45534308040652" lon="-64.4405720748485"/><rtept lat="18.456061662231306" lon="-64.44237033622127"/><rtept lat="18.45774123427081" lon="-64.44410451873034"/><rtept lat="18.459063830989663" lon="-64.44600910453435"/><rtept lat="18.519100561567996" lon="-64.40810535649585"/><rtept lat="18.52644608378562" lon="-64.39820065083613"/><rtept lat="18.52930244660199" lon="-64.39488947908009"/><rtept lat="18.521599409497487" lon="-64.38747468891141"/><rtept lat="18.51187254736016" lon="-64.38106710048251"/><rtept lat="18.509301096817573" lon="-64.37901179527042"/><rtept lat="18.50461209482955" lon="-64.38039418750668"/><rtept lat="18.502846326472117" lon="-64.38444682564291"/><rtept lat="18.498492721084897" lon="-64.38898945701692"/><rtept lat="18.50497883176572" lon="-64.38189145832361"/><rtept lat="18.507405755814567" lon="-64.37966840488717"/><rtept lat="18.512004469154462" lon="-64.38046153117712"/><rtept lat="18.63242864024643" lon="-64.39585372671898"/><rtept lat="18.65166705219027" lon="-64.39913155958473"/><rtept lat="18.706278480850504" lon="-64.40319725683524"/><rtept lat="18.71162895633337" lon="-64.39691015161759"/><rtept lat="18.707152165619664" lon="-64.39258416852469"/><rtept lat="18.710897192295775" lon="-64.38818623306486"/><rtept lat="18.710491223493477" lon="-64.38488862219813"/><rtept lat="18.711660127637508" lon="-64.38194719487291"/><rtept lat="18.71100710822228" lon="-64.38062293071376"/><rtept lat="18.712165172010508" lon="-64.37999399423114"/><rtept lat="18.713933890467487" lon="-64.37830134271823"/><rtept lat="18.715035919455254" lon="-64.37844825115606"/><rtept lat="18.72047185976639" lon="-64.38081734609693"/><rtept lat="18.720586072036095" lon="-64.38120074052958"/><rtept lat="18.715498890937695" lon="-64.38006329238551"/><rtept lat="18.713784449407207" lon="-64.37842407863958"/><rtept lat="18.71192867409106" lon="-64.38049108279317"/><rtept lat="18.711097316931813" lon="-64.38261460814489"/><rtept lat="18.708265334701544" lon="-64.39620435869341"/><rtept lat="18.707113250044916" lon="-64.40087357481005"/><rtept lat="18.703193130184122" lon="-64.40311353120255"/><rtept lat="18.62317282524943" lon="-64.44002593562648"/><rtept lat="18.61290392555628" lon="-64.44422101930783"/><rtept lat="18.58833667259823" lon="-64.45684352048957"/><rtept lat="18.471265602032883" lon="-64.52611948757219"/><rtept lat="18.468596313515878" lon="-64.5260958368801"/><rtept lat="18.467031217855627" lon="-64.52507924125119"/><rtept lat="18.464329434171653" lon="-64.52611395173898"/><rtept lat="18.461766367865227" lon="-64.5280151643224"/><rtept lat="18.458926194786716" lon="-64.52825953584707"/><rtept lat="18.457848990659393" lon="-64.52991197808848"/><rtept lat="18.45622757197666" lon="-64.53073906438719"/><rtept lat="18.44659147529796" lon="-64.5318602415908"/><rtept lat="18.448776204863023" lon="-64.53138377375527"/><rtept lat="18.450499231095623" lon="-64.53157924938195"/><rtept lat="18.450380807979155" lon="-64.53453632614396"/><rtept lat="18.45065443351145" lon="-64.54190280347056"/><rtept lat="18.453211507082575" lon="-64.54648774018312"/><rtept lat="18.457552101573096" lon="-64.55376434193985"/><rtept lat="18.46150953501696" lon="-64.5570032683182"/><rtept lat="18.463659062073255" lon="-64.56085768478829"/><rtept lat="18.46112580244326" lon="-64.56981289751985"/><rtept lat="18.46117564718278" lon="-64.57115488408635"/><rtept lat="18.460390226951777" lon="-64.57393138799027"/><rtept lat="18.462024028438453" lon="-64.61827727337487"/><rtept lat="18.44508881664207" lon="-64.68467506191128"/><rtept lat="18.44637176622184" lon="-64.70508093923341"/><rtept lat="18.446932296096925" lon="-64.70909436039481"/><rtept lat="18.449026847707174" lon="-64.71064901310275"/><rtept lat="18.45092206357163" lon="-64.71075282960821"/><rtept lat="18.451649886015055" lon="-64.70993479665505"/><rtept lat="18.451518684109267" lon="-64.70980662950328"/><rtept lat="18.45018636526419" lon="-64.7106193750304"/><rtept lat="18.44769015112562" lon="-64.71349106395985"/><rtept lat="18.435044764857178" lon="-64.72043889620909"/><rtept lat="18.432514695556048" lon="-64.73256787668848"/><rtept lat="18.432034061187125" lon="-64.73648358548908"/><rtept lat="18.434105483543927" lon="-64.74613576335972"/><rtept lat="18.43520703213529" lon="-64.74975816343331"/><rtept lat="18.43864812450527" lon="-64.75123885072111"/><rtept lat="18.441947812284987" lon="-64.75137939899291"/><rtept lat="18.443097283590447" lon="-64.75132319325574"/><rtept lat="18.44017682213232" lon="-64.75096393087915"/><rtept lat="18.438378739965472" lon="-64.75037186785197"/><rtept lat="18.39117182979346" lon="-64.71893163844105"/><rtept lat="18.38959551991887" lon="-64.71886110806504"/><rtept lat="18.38131927342658" lon="-64.72160327153983"/><rtept lat="18.367975846416723" lon="-64.71271862333535"/><rtept lat="18.37329342064029" lon="-64.70395888378408"/><rtept lat="18.386964610248057" lon="-64.6846014893621"/><rtept lat="18.370598414025473" lon="-64.67476564804376"/><rtept lat="18.376526044726713" lon="-64.66638826396012"/><rtept lat="18.351647273659278" lon="-64.65182028035109"/><rtept lat="18.31812596918538" lon="-64.62304799577254"/><rtept lat="18.31773077064875" lon="-64.62174711242521"/><rtept lat="18.31610144760412" lon="-64.61772127980485"/><rtept lat="18.316535631361127" lon="-64.61753248556816"/><rtept lat="18.317062189645526" lon="-64.61999955124968"/><rtept lat="18.318134760843172" lon="-64.6230939690846"/><rtept lat="18.329438785561894" lon="-64.63391345156657"/><rtept lat="18.350168381747043" lon="-64.66157635889087"/><rtept lat="18.377486549520544" lon="-64.70490167700223"/><rtept lat="18.380842859063055" lon="-64.70788654972185"/><rtept lat="18.38409090343838" lon="-64.70860476307175"/><rtept lat="18.384874944705803" lon="-64.70720433647104"/><rtept lat="18.38661296511719" lon="-64.70221546949959"/><rtept lat="18.38709634908769" lon="-64.70162374030286"/><rtept lat="18.38742617564747" lon="-64.70133938721308"/><rtept lat="18.385426404879496" lon="-64.7048910286817"/><rtept lat="18.384154683455712" lon="-64.70846353154347"/><rtept lat="18.383194649377348" lon="-64.7077870010634"/><rtept lat="18.381863987398372" lon="-64.7082485293467"/><rtept lat="18.378469622250417" lon="-64.7058565397967"/><rtept lat="18.378000663663506" lon="-64.6812955938819"/><rtept lat="18.37972420833698" lon="-64.65678923970376"/><rtept lat="18.390911258183205" lon="-64.63968803580424"/><rtept lat="18.404387153328116" lon="-64.61487339646163"/><rtept lat="18.41201510311656" lon="-64.6092252371224"/><rtept lat="18.41350209297279" lon="-64.60831659983232"/><rtept lat="18.41521996748278" lon="-64.60896254696287"/><rtept lat="18.41612562375859" lon="-64.61008305357066"/><rtept lat="18.417422343910722" lon="-64.60893285539112"/></rte></gpx>