<gpx xmlns="http://www.topografix.com/GPX/1/1" xmlns:xsi="http://www.w3.org/2001/XMLSchema-instance" xsi:schemaLocation="http://www.topografix.com/GPX/1/1 http://www.topografix.com/GPX/1/1/gpx.xsd" version="1.1" creator="savvy navvy"><metadata/><rte><name>savvy navvy route</name><desc>Created by savvy navvy</desc><link href="https://www.savvy-navvy.com"/><rtept lat="18.4178549" lon="-64.6055786"/><rtept lat="18.413619228856618" lon="-64.60389864719993"/><rtept lat="18.41161194037738" lon="-64.59788156321845"/><rtept lat="18.410047176180687" lon="-64.59495609110473"/><rtept lat="18.405595996720436" lon="-64.56225156784058"/><rtept lat="18.405819648798946" lon="-64.55513495088962"/><rtept lat="18.406634565282754" lon="-64.54806583370518"/><rtept lat="18.411698291421086" lon="-64.53760380147854"/><rtept lat="18.424496616045577" lon="-64.515407624008"/><rtept lat="18.445698678061152" lon="-64.48472008872595"/><rtept lat="18.43023539176592" lon="-64.47451369320684"/><rtept lat="18.44137447630939" lon="-64.45835771877509"/><rtept lat="18.427646574436253" lon="-64.4485517088021"/><rtept lat="18.42841824255394" lon="-64.44742944791683"/><rtept lat="18.428743649125728" lon="-64.44695927665164"/><rtept lat="18.429411010228385" lon="-64.44753853210113"/><rtept lat="18.44006585649097" lon="-64.44920000861497"/><rtept lat="18.455602383730078" lon="-64.44753863024899"/><rtept lat="18.459178587538272" lon="-64.4449539875842"/><rtept lat="18.47101298522166" lon="-64.43066235314711"/><rtept lat="18.46960278519093" lon="-64.42943147208383"/><rtept lat="18.468379442133486" lon="-64.42709719974341"/><rtept lat="18.466258428604146" lon="-64.42025676075899"/><rtept lat="18.465973620891276" lon="-64.42015049965681"/><rtept lat="18.465722467778402" lon="-64.42010716683308"/><rtept lat="18.46801655321554" lon="-64.42326274974444"/><rtept lat="18.469129760015424" lon="-64.42241191253302"/><rtept lat="18.51111331243711" lon="-64.41767176889329"/><rtept lat="18.514879671210572" lon="-64.41479224598191"/><rtept lat="18.527080711230617" lon="-64.39801303089558"/><rtept lat="18.524811281582227" lon="-64.39619901719925"/><rtept lat="18.52097682669018" lon="-64.39367297242921"/><rtept lat="18.52025843200023" lon="-64.3873372789474"/><rtept lat="18.517702128738865" lon="-64.38565324910071"/><rtept lat="18.51481348677376" lon="-64.3828728643232"/><rtept lat="18.512295915404337" lon="-64.3812144481992"/><rtept lat="18.50927721845421" lon="-64.38026187761501"/><rtept lat="18.504840379185293" lon="-64.38057095903744"/><rtept lat="18.50225451341365" lon="-64.38446459059429"/><rtept lat="18.49851189900763" lon="-64.3891415108925"/><rtept lat="18.50497883176572" lon="-64.38189145832361"/><rtept lat="18.506550820507105" lon="-64.38106765516595"/><rtept lat="18.509049053210347" lon="-64.37946748295327"/><rtept lat="18.513371169409766" lon="-64.38103710878055"/><rtept lat="18.517251537369788" lon="-64.38408237199411"/><rtept lat="18.520037426674712" lon="-64.38774546565828"/><rtept lat="18.52359006966804" lon="-64.39847708146472"/><rtept lat="18.49219791381552" lon="-64.44792117921286"/><rtept lat="18.4877170157595" lon="-64.45902770446774"/><rtept lat="18.489318579137535" lon="-64.45968063379962"/><rtept lat="18.491607397863596" lon="-64.45848167262278"/><rtept lat="18.488998671738266" lon="-64.4651805714895"/><rtept lat="18.499303876753057" lon="-64.53128933308575"/><rtept lat="18.49851471483776" lon="-64.53511446978605"/><rtept lat="18.490081429711942" lon="-64.54409080347509"/><rtept lat="18.476012610383552" lon="-64.54214868096413"/><rtept lat="18.473319418054523" lon="-64.53987714218529"/><rtept lat="18.469816492300737" lon="-64.53744464870185"/><rtept lat="18.47159485077568" lon="-64.53482433056695"/><rtept lat="18.471546721081488" lon="-64.53457724716024"/><rtept lat="18.47143919864099" lon="-64.53402525921724"/><rtept lat="18.470439983385468" lon="-64.5361394673517"/><rtept lat="18.46969001220511" lon="-64.53741114864124"/><rtept lat="18.462329605063616" lon="-64.56382561892441"/><rtept lat="18.46262744644568" lon="-64.57157661297006"/><rtept lat="18.463435545415784" lon="-64.57157858829807"/><rtept lat="18.46437980535675" lon="-64.57100924815245"/><rtept lat="18.46469685564286" lon="-64.57077703023825"/><rtept lat="18.46487510887275" lon="-64.57062049855983"/><rtept lat="18.464773716527738" lon="-64.5715973416565"/><rtept lat="18.46470612061598" lon="-64.57906513692598"/><rtept lat="18.460866021209842" lon="-64.622363649908"/><rtept lat="18.45407845095424" lon="-64.6519868641412"/><rtept lat="18.454098181422545" lon="-64.65595177277068"/><rtept lat="18.450246217298087" lon="-64.65964985113632"/><rtept lat="18.445755443460765" lon="-64.66266646626042"/><rtept lat="18.441111305569997" lon="-64.66523207829263"/><rtept lat="18.436350701619034" lon="-64.66734029444515"/><rtept lat="18.432997613086915" lon="-64.66549417758726"/><rtept lat="18.430309831839836" lon="-64.66461433568352"/><rtept lat="18.428397073077853" lon="-64.66304866656779"/><rtept lat="18.427685693705715" lon="-64.6609646331913"/><rtept lat="18.430316156267928" lon="-64.67133161871227"/><rtept lat="18.446998762523005" lon="-64.70888373010544"/><rtept lat="18.448857563722775" lon="-64.7094928931915"/><rtept lat="18.451141298083908" lon="-64.71008209328252"/><rtept lat="18.451184185593267" lon="-64.70989959030001"/><rtept lat="18.451140234469612" lon="-64.7097407312603"/><rtept lat="18.450316315462768" lon="-64.71063744756239"/><rtept lat="18.43923400108246" lon="-64.7180841082317"/><rtept lat="18.43563219173552" lon="-64.72006295594794"/><rtept lat="18.43170562221198" lon="-64.73888666369407"/><rtept lat="18.43246088931929" lon="-64.74137033045791"/><rtept lat="18.437640065137984" lon="-64.74983171258758"/><rtept lat="18.439524508336472" lon="-64.75085197294014"/><rtept lat="18.443178816245684" lon="-64.7516887543087"/><rtept lat="18.435710943042963" lon="-64.74965903813103"/><rtept lat="18.40820805171403" lon="-64.73134096158793"/><rtept lat="18.38706370383986" lon="-64.71983762402924"/><rtept lat="18.38604057842254" lon="-64.71815901023189"/><rtept lat="18.38557312991134" lon="-64.7071826306969"/><rtept lat="18.38605892607082" lon="-64.70536418479136"/><rtept lat="18.387535225381924" lon="-64.70135282710322"/><rtept lat="18.385990963229656" lon="-64.7027135828125"/><rtept lat="18.3858487940524" lon="-64.70786407109982"/><rtept lat="18.383742656840514" lon="-64.70793158578941"/><rtept lat="18.381724599395135" lon="-64.70792994813489"/><rtept lat="18.379737661036682" lon="-64.70667387526903"/><rtept lat="18.36402574141368" lon="-64.6945732091378"/><rtept lat="18.382170101988898" lon="-64.67405887518375"/><rtept lat="18.32984075614464" lon="-64.63323377547859"/><rtept lat="18.33230441556969" lon="-64.63046256772208"/><rtept lat="18.332153332525106" lon="-64.62953668460896"/><rtept lat="18.33153706783142" lon="-64.6306083226826"/><rtept lat="18.330081983266023" lon="-64.62948536271126"/><rtept lat="18.31984012584499" lon="-64.62414221798343"/><rtept lat="18.318615102288206" lon="-64.62275190490662"/><rtept lat="18.31729091488392" lon="-64.62050784392692"/><rtept lat="18.316560291539002" lon="-64.61776582903161"/><rtept lat="18.32183404690759" lon="-64.62565876344074"/><rtept lat="18.323612069837306" lon="-64.6259381805804"/><rtept lat="18.340199479925502" lon="-64.61937164718161"/><rtept lat="18.413703042151035" lon="-64.60587299722785"/><rtept lat="18.415192543594284" lon="-64.60718483621082"/><rtept lat="18.415754663529913" lon="-64.60802752832919"/><rtept lat="18.416414456244468" lon="-64.60885284447203"/></rte></gpx>