<gpx xmlns="http://www.topografix.com/GPX/1/1" xmlns:xsi="http://www.w3.org/2001/XMLSchema-instance" xsi:schemaLocation="http://www.topografix.com/GPX/1/1 http://www.topografix.com/GPX/1/1/gpx.xsd" version="1.1" creator="savvy navvy"><metadata/><rte><name>savvy navvy route</name><desc>Created by savvy navvy</desc><link href="https://www.savvy-navvy.com"/><rtept lat="18.4187178" lon="-64.6051994"/><rtept lat="18.410383009988944" lon="-64.60610797947449"/><rtept lat="18.40207917679769" lon="-64.61897548890062"/><rtept lat="18.377735161392046" lon="-64.62162889876353"/><rtept lat="18.332567922535688" lon="-64.62953095480144"/><rtept lat="18.33191805645096" lon="-64.62934249486429"/><rtept lat="18.322476814610265" lon="-64.62815421597912"/><rtept lat="18.321613844280577" lon="-64.62651828259712"/><rtept lat="18.32019684033857" lon="-64.62436073480485"/><rtept lat="18.315889863347106" lon="-64.61900975823059"/><rtept lat="18.31478352574801" lon="-64.61858945458579"/><rtept lat="18.315184053680547" lon="-64.62045601801218"/><rtept lat="18.319142248457556" lon="-64.62209694187304"/><rtept lat="18.320453663173275" lon="-64.62580241027301"/><rtept lat="18.331160684401617" lon="-64.63065420566718"/><rtept lat="18.345859563573743" lon="-64.629293188321"/><rtept lat="18.353361553339322" lon="-64.6186749970805"/><rtept lat="18.374269772744245" lon="-64.58308543966614"/><rtept lat="18.37234941004154" lon="-64.57703869359989"/><rtept lat="18.373119799139356" lon="-64.54818608985258"/><rtept lat="18.37252464850644" lon="-64.53670292430773"/><rtept lat="18.370116720726816" lon="-64.53484903707277"/><rtept lat="18.37062473287318" lon="-64.5341672009045"/><rtept lat="18.370692239823242" lon="-64.53407718303727"/><rtept lat="18.37071520977787" lon="-64.53585876555059"/><rtept lat="18.371598614716195" lon="-64.53747737358144"/><rtept lat="18.372570690594998" lon="-64.53591410712518"/><rtept lat="18.3739065056916" lon="-64.5346518251882"/><rtept lat="18.386542980090493" lon="-64.51877269863932"/><rtept lat="18.386208761328067" lon="-64.51686696341328"/><rtept lat="18.38554474842817" lon="-64.51438756934007"/><rtept lat="18.385244180089956" lon="-64.5137491977926"/><rtept lat="18.387773374487836" lon="-64.51484707252567"/><rtept lat="18.38993169162547" lon="-64.51452312047644"/><rtept lat="18.39185241421923" lon="-64.51298828688068"/><rtept lat="18.434204206564342" lon="-64.45605306229344"/><rtept lat="18.429632350252362" lon="-64.45197373335334"/><rtept lat="18.428362593557836" lon="-64.44764172331621"/><rtept lat="18.42879354819569" lon="-64.44702216087963"/><rtept lat="18.42940254199175" lon="-64.44757740154368"/><rtept lat="18.43090325838747" lon="-64.44846986371147"/><rtept lat="18.446035825830666" lon="-64.44865898073178"/><rtept lat="18.45986367798132" lon="-64.44760494213912"/><rtept lat="18.464349799008797" lon="-64.44525367526767"/><rtept lat="18.517846002621678" lon="-64.41383491504537"/><rtept lat="18.52947696330287" lon="-64.39457727031358"/><rtept lat="18.513689351387576" lon="-64.3820027689309"/><rtept lat="18.511423101900192" lon="-64.38052131855162"/><rtept lat="18.50724261967743" lon="-64.37961506856092"/><rtept lat="18.503362010154444" lon="-64.38349709170257"/><rtept lat="18.50131248526335" lon="-64.38657869000698"/><rtept lat="18.49850649159311" lon="-64.38895941525975"/><rtept lat="18.500927647736184" lon="-64.38637871729463"/><rtept lat="18.50358955952227" lon="-64.38310048407911"/><rtept lat="18.50716241457049" lon="-64.37937668201354"/><rtept lat="18.51194944612545" lon="-64.38026804964593"/><rtept lat="18.63050810028996" lon="-64.39315207972932"/><rtept lat="18.70263148290349" lon="-64.40611243240348"/><rtept lat="18.71718387532796" lon="-64.3923105610455"/><rtept lat="18.71052307567053" lon="-64.38464506326062"/><rtept lat="18.71091748577484" lon="-64.38416691510615"/><rtept lat="18.711561936752318" lon="-64.38064869342166"/><rtept lat="18.712491859396224" lon="-64.37952133691857"/><rtept lat="18.714136947102713" lon="-64.37889309154217"/><rtept lat="18.71706451508322" lon="-64.38069511898634"/><rtept lat="18.719823594448957" lon="-64.38151891180263"/><rtept lat="18.72022485236082" lon="-64.38152539026098"/><rtept lat="18.720347070635167" lon="-64.381377214698"/><rtept lat="18.720594985063133" lon="-64.38123228463753"/><rtept lat="18.715487067099204" lon="-64.38006057862961"/><rtept lat="18.713717616749555" lon="-64.37836876979023"/><rtept lat="18.71199963490552" lon="-64.38030910449872"/><rtept lat="18.710961945304778" lon="-64.38241578691624"/><rtept lat="18.71071823587636" lon="-64.38440248999264"/><rtept lat="18.708276454064354" lon="-64.39063925454292"/><rtept lat="18.7027913860848" lon="-64.40556449632928"/><rtept lat="18.59345077107205" lon="-64.44836699003949"/><rtept lat="18.47688029311192" lon="-64.52224331899275"/><rtept lat="18.473340570676804" lon="-64.52619158223777"/><rtept lat="18.470257381315058" lon="-64.52601749400833"/><rtept lat="18.4681059828705" lon="-64.52569103534866"/><rtept lat="18.466634076294582" lon="-64.5248326855956"/><rtept lat="18.463893500389915" lon="-64.52599831242372"/><rtept lat="18.461067490894987" lon="-64.52784420550718"/><rtept lat="18.45919572584049" lon="-64.52826630419169"/><rtept lat="18.451010642699437" lon="-64.53170447635301"/><rtept lat="18.446686855180896" lon="-64.53186215979885"/><rtept lat="18.446547273903388" lon="-64.53178300997912"/><rtept lat="18.448743937638394" lon="-64.53141571942112"/><rtept lat="18.45001480363226" lon="-64.53256530442735"/><rtept lat="18.450796248082312" lon="-64.53374563450478"/><rtept lat="18.45144304837779" lon="-64.53492011117619"/><rtept lat="18.45178609661909" lon="-64.5361820490559"/><rtept lat="18.451277391261065" lon="-64.53708539373233"/><rtept lat="18.4510384875365" lon="-64.54311670453839"/><rtept lat="18.45141244172277" lon="-64.54395002446897"/><rtept lat="18.453116048875607" lon="-64.54705252326914"/><rtept lat="18.4610742894556" lon="-64.56039377122752"/><rtept lat="18.46254292908931" lon="-64.56370472416856"/><rtept lat="18.461635942185076" lon="-64.56620527446835"/><rtept lat="18.461521858877614" lon="-64.56917261567297"/><rtept lat="18.463643564372855" lon="-64.57148190706245"/><rtept lat="18.464330835602034" lon="-64.5708093217886"/><rtept lat="18.464731233080176" lon="-64.57071667258343"/><rtept lat="18.464996581369434" lon="-64.57068041559515"/><rtept lat="18.46714188630556" lon="-64.60479014961676"/><rtept lat="18.44833216244245" lon="-64.69029942435454"/><rtept lat="18.446570343499683" lon="-64.70368863828388"/><rtept lat="18.44558008466423" lon="-64.70828576129571"/><rtept lat="18.450544463806555" lon="-64.71000867658472"/><rtept lat="18.45100753225897" lon="-64.70988403282497"/><rtept lat="18.450982986176157" lon="-64.709783908686"/><rtept lat="18.45109194345908" lon="-64.70975458074254"/><rtept lat="18.450153793540473" lon="-64.71065083800991"/><rtept lat="18.44722229576151" lon="-64.7130225240272"/><rtept lat="18.43390776857798" lon="-64.7203380064795"/><rtept lat="18.431273848554877" lon="-64.73296484027027"/><rtept lat="18.43112130926226" lon="-64.73689589145067"/><rtept lat="18.43504958211563" lon="-64.74474444496947"/><rtept lat="18.440071095611625" lon="-64.75045142453665"/><rtept lat="18.44236467347934" lon="-64.75120121078464"/><rtept lat="18.44290722482453" lon="-64.75137857451979"/><rtept lat="18.435674767459755" lon="-64.74965067257071"/><rtept lat="18.410094333716447" lon="-64.73261303322903"/><rtept lat="18.389749076154526" lon="-64.72154429477166"/><rtept lat="18.386094712571136" lon="-64.71911092819099"/><rtept lat="18.384744942044186" lon="-64.7084501013368"/><rtept lat="18.38449972124303" lon="-64.70509550322299"/><rtept lat="18.385928432673893" lon="-64.70365803784293"/><rtept lat="18.38753451729961" lon="-64.70140200679418"/><rtept lat="18.385569333760245" lon="-64.70466871651274"/><rtept lat="18.385540280460514" lon="-64.70784149306108"/><rtept lat="18.382590570635713" lon="-64.70776960098489"/><rtept lat="18.380086977600644" lon="-64.70869213803178"/><rtept lat="18.364668701555594" lon="-64.69869810411517"/><rtept lat="18.382343496504088" lon="-64.67539167704676"/><rtept lat="18.335538629482812" lon="-64.6464677186439"/><rtept lat="18.337249117055812" lon="-64.64422569940213"/><rtept lat="18.35202011452665" lon="-64.62096806997195"/><rtept lat="18.36400477298492" lon="-64.59852336111062"/><rtept lat="18.362475869920775" lon="-64.597339548771"/><rtept lat="18.358093321241025" lon="-64.58679576500309"/><rtept lat="18.356677410427974" lon="-64.58063059337815"/><rtept lat="18.356149624913634" lon="-64.5839298477478"/><rtept lat="18.359687241744954" lon="-64.584346769436"/><rtept lat="18.361774254560054" lon="-64.58595933702796"/><rtept lat="18.415425940970923" lon="-64.60800568463242"/><rtept lat="18.41651450039821" lon="-64.60857228545515"/><rtept lat="18.416630019569556" lon="-64.60907331151824"/></rte></gpx>